[{"OBJECT_NAME":"QIANFAN-39","OBJECT_ID":"2024-232D","EPOCH":"2026-03-09T21:25:16.059072","MEAN_MOTION":14.25440879,"ECCENTRICITY":0.00171102,"INCLINATION":89.0064,"RA_OF_ASC_NODE":27.3413,"ARG_OF_PERICENTER":145.5992,"MEAN_ANOMALY":214.6313,"EPHEMERIS_TYPE":0,"CLASSIFICATION_TYPE":"U","NORAD_CAT_ID":62240,"ELEMENT_SET_NO":999,"REV_AT_EPOCH":11380,"BSTAR":0.00022622412,"MEAN_MOTION_DOT":5.49e-6,"MEAN_MOTION_DDOT":0},{"OBJECT_NAME":"OPS 4078 (DMSP 4B F2)","OBJECT_ID":"1968-092A","EPOCH":"2026-03-09T21:16:17.407776","MEAN_MOTION":14.28218921,"ECCENTRICITY":0.00286708,"INCLINATION":98.5563,"RA_OF_ASC_NODE":193.3095,"ARG_OF_PERICENTER":258.2617,"MEAN_ANOMALY":101.5347,"EPHEMERIS_TYPE":0,"CLASSIFICATION_TYPE":"U","NORAD_CAT_ID":3510,"ELEMENT_SET_NO":999,"REV_AT_EPOCH":98307,"BSTAR":9.5982727e-5,"MEAN_MOTION_DOT":1.97e-6,"MEAN_MOTION_DDOT":0}]
